[{"OBJECT_NAME":"STARLINK-31329","OBJECT_ID":"2024-044T","EPOCH":"2026-03-09T11:56:28.518720","MEAN_MOTION":15.2757817,"ECCENTRICITY":0.00017143,"INCLINATION":43.0068,"RA_OF_ASC_NODE":108.3313,"ARG_OF_PERICENTER":285.706,"MEAN_ANOMALY":74.3603,"EPHEMERIS_TYPE":0,"CLASSIFICATION_TYPE":"U","NORAD_CAT_ID":59169,"ELEMENT_SET_NO":999,"REV_AT_EPOCH":11353,"BSTAR":-3.3548724e-5,"MEAN_MOTION_DOT":-1.185e-5,"MEAN_MOTION_DDOT":0},{"OBJECT_NAME":"OBJECT BE","OBJECT_ID":"2025-313BE","EPOCH":"2026-03-09T16:43:59.380320","MEAN_MOTION":15.29801687,"ECCENTRICITY":0.00072083,"INCLINATION":97.3989,"RA_OF_ASC_NODE":145.3568,"ARG_OF_PERICENTER":335.3714,"MEAN_ANOMALY":24.7181,"EPHEMERIS_TYPE":0,"CLASSIFICATION_TYPE":"U","NORAD_CAT_ID":67482,"ELEMENT_SET_NO":999,"REV_AT_EPOCH":797,"BSTAR":0.0026504328,"MEAN_MOTION_DOT":0.00077178,"MEAN_MOTION_DDOT":0}]
